CCSDS_OMM_VERS = 2.0
CREATION_DATE  = 
ORIGINATOR     = 

OBJECT_NAME    = STARLINK-35858
OBJECT_ID      = 2025-280N
CENTER_NAME    = EARTH
REF_FRAME      = TEME
TIME_SYSTEM    = UTC
MEAN_ELEMENT_THEORY = SGP/SGP4

EPOCH          = 2025-12-26T08:00:01.000224
MEAN_MOTION    = 15.52414998
ECCENTRICITY   = .0003363
INCLINATION    = 70.0002
RA_OF_ASC_NODE = 161.1545
ARG_OF_PERICENTER = 269.1139
MEAN_ANOMALY   = 114.4876

EPHEMERIS_TYPE = 0
CLASSIFICATION_TYPE = U
NORAD_CAT_ID   = 66833
ELEMENT_SET_NO = 999
REV_AT_EPOCH   = 508
BSTAR          = .29835E-2
MEAN_MOTION_DOT = .187064E-2
MEAN_MOTION_DDOT = 0

CCSDS_OMM_VERS = 2.0
CREATION_DATE  = 
ORIGINATOR     = 

OBJECT_NAME    = STARLINK-35840
OBJECT_ID      = 2025-280P
CENTER_NAME    = EARTH
REF_FRAME      = TEME
TIME_SYSTEM    = UTC
MEAN_ELEMENT_THEORY = SGP/SGP4

EPOCH          = 2025-12-26T18:42:55.780992
MEAN_MOTION    = 15.52559570
ECCENTRICITY   = .0003342
INCLINATION    = 70.0006
RA_OF_ASC_NODE = 159.9293
ARG_OF_PERICENTER = 274.8036
MEAN_ANOMALY   = 85.2769

EPHEMERIS_TYPE = 0
CLASSIFICATION_TYPE = U
NORAD_CAT_ID   = 66834
ELEMENT_SET_NO = 999
REV_AT_EPOCH   = 511
BSTAR          = .13766E-2
MEAN_MOTION_DOT = .85565E-3
MEAN_MOTION_DDOT = 0

CCSDS_OMM_VERS = 2.0
CREATION_DATE  = 
ORIGINATOR     = 

OBJECT_NAME    = STARLINK-35890
OBJECT_ID      = 2025-280Q
CENTER_NAME    = EARTH
REF_FRAME      = TEME
TIME_SYSTEM    = UTC
MEAN_ELEMENT_THEORY = SGP/SGP4

EPOCH          = 2025-12-26T18:42:26.212320
MEAN_MOTION    = 15.52550895
ECCENTRICITY   = .0003392
INCLINATION    = 70.0007
RA_OF_ASC_NODE = 159.9280
ARG_OF_PERICENTER = 271.2438
MEAN_ANOMALY   = 88.8360

EPHEMERIS_TYPE = 0
CLASSIFICATION_TYPE = U
NORAD_CAT_ID   = 66835
ELEMENT_SET_NO = 999
REV_AT_EPOCH   = 511
BSTAR          = .11939E-2
MEAN_MOTION_DOT = .74053E-3
MEAN_MOTION_DDOT = 0

CCSDS_OMM_VERS = 2.0
CREATION_DATE  = 
ORIGINATOR     = 

OBJECT_NAME    = STARLINK-35838
OBJECT_ID      = 2025-280R
CENTER_NAME    = EARTH
REF_FRAME      = TEME
TIME_SYSTEM    = UTC
MEAN_ELEMENT_THEORY = SGP/SGP4

EPOCH          = 2025-12-26T17:09:09.872640
MEAN_MOTION    = 15.52556408
ECCENTRICITY   = .0003499
INCLINATION    = 70.0008
RA_OF_ASC_NODE = 160.1030
ARG_OF_PERICENTER = 273.1058
MEAN_ANOMALY   = 86.9728

EPHEMERIS_TYPE = 0
CLASSIFICATION_TYPE = U
NORAD_CAT_ID   = 66836
ELEMENT_SET_NO = 999
REV_AT_EPOCH   = 510
BSTAR          = .15917E-2
MEAN_MOTION_DOT = .99122E-3
MEAN_MOTION_DDOT = 0

CCSDS_OMM_VERS = 2.0
CREATION_DATE  = 
ORIGINATOR     = 

OBJECT_NAME    = STARLINK-35729
OBJECT_ID      = 2025-280S
CENTER_NAME    = EARTH
REF_FRAME      = TEME
TIME_SYSTEM    = UTC
MEAN_ELEMENT_THEORY = SGP/SGP4

EPOCH          = 2025-12-26T12:30:17.392032
MEAN_MOTION    = 15.52817833
ECCENTRICITY   = .0003286
INCLINATION    = 70.0008
RA_OF_ASC_NODE = 160.6309
ARG_OF_PERICENTER = 288.0168
MEAN_ANOMALY   = 72.0660

EPHEMERIS_TYPE = 0
CLASSIFICATION_TYPE = U
NORAD_CAT_ID   = 66837
ELEMENT_SET_NO = 999
REV_AT_EPOCH   = 507
BSTAR          = .63216E-2
MEAN_MOTION_DOT = .41412E-2
MEAN_MOTION_DDOT = 0

CCSDS_OMM_VERS = 2.0
CREATION_DATE  = 
ORIGINATOR     = 

OBJECT_NAME    = STARLINK-35886
OBJECT_ID      = 2025-280T
CENTER_NAME    = EARTH
REF_FRAME      = TEME
TIME_SYSTEM    = UTC
MEAN_ELEMENT_THEORY = SGP/SGP4

EPOCH          = 2025-12-26T17:07:40.939392
MEAN_MOTION    = 15.52541017
ECCENTRICITY   = .000342
INCLINATION    = 70.0009
RA_OF_ASC_NODE = 160.0986
ARG_OF_PERICENTER = 272.8203
MEAN_ANOMALY   = 87.2592

EPHEMERIS_TYPE = 0
CLASSIFICATION_TYPE = U
NORAD_CAT_ID   = 66838
ELEMENT_SET_NO = 999
REV_AT_EPOCH   = 510
BSTAR          = .9115E-3
MEAN_MOTION_DOT = .56353E-3
MEAN_MOTION_DDOT = 0

CCSDS_OMM_VERS = 2.0
CREATION_DATE  = 
ORIGINATOR     = 

OBJECT_NAME    = STARLINK-35717
OBJECT_ID      = 2025-280U
CENTER_NAME    = EARTH
REF_FRAME      = TEME
TIME_SYSTEM    = UTC
MEAN_ELEMENT_THEORY = SGP/SGP4

EPOCH          = 2025-12-26T17:08:10.574592
MEAN_MOTION    = 15.52552146
ECCENTRICITY   = .0003396
INCLINATION    = 70.0007
RA_OF_ASC_NODE = 160.0996
ARG_OF_PERICENTER = 276.4872
MEAN_ANOMALY   = 83.5928

EPHEMERIS_TYPE = 0
CLASSIFICATION_TYPE = U
NORAD_CAT_ID   = 66839
ELEMENT_SET_NO = 999
REV_AT_EPOCH   = 510
BSTAR          = .12353E-2
MEAN_MOTION_DOT = .76659E-3
MEAN_MOTION_DDOT = 0

CCSDS_OMM_VERS = 2.0
CREATION_DATE  = 
ORIGINATOR     = 

OBJECT_NAME    = STARLINK-35837
OBJECT_ID      = 2025-280V
CENTER_NAME    = EARTH
REF_FRAME      = TEME
TIME_SYSTEM    = UTC
MEAN_ELEMENT_THEORY = SGP/SGP4

EPOCH          = 2025-12-26T20:12:15.294816
MEAN_MOTION    = 15.54573922
ECCENTRICITY   = .0007544
INCLINATION    = 70.0008
RA_OF_ASC_NODE = 159.7435
ARG_OF_PERICENTER = 296.0651
MEAN_ANOMALY   = 63.9760

EPHEMERIS_TYPE = 0
CLASSIFICATION_TYPE = U
NORAD_CAT_ID   = 66840
ELEMENT_SET_NO = 999
REV_AT_EPOCH   = 512
BSTAR          = .17506E-1
MEAN_MOTION_DOT = .1281556E-1
MEAN_MOTION_DDOT = 0

CCSDS_OMM_VERS = 2.0
CREATION_DATE  = 
ORIGINATOR     = 

OBJECT_NAME    = STARLINK-35715
OBJECT_ID      = 2025-280W
CENTER_NAME    = EARTH
REF_FRAME      = TEME
TIME_SYSTEM    = UTC
MEAN_ELEMENT_THEORY = SGP/SGP4

EPOCH          = 2025-12-26T20:11:42.569088
MEAN_MOTION    = 15.55243777
ECCENTRICITY   = .0005641
INCLINATION    = 70.0006
RA_OF_ASC_NODE = 159.7422
ARG_OF_PERICENTER = 310.7010
MEAN_ANOMALY   = 49.3688

EPHEMERIS_TYPE = 0
CLASSIFICATION_TYPE = U
NORAD_CAT_ID   = 66841
ELEMENT_SET_NO = 999
REV_AT_EPOCH   = 512
BSTAR          = .32436E-1
MEAN_MOTION_DOT = .2478738E-1
MEAN_MOTION_DDOT = 0

CCSDS_OMM_VERS = 2.0
CREATION_DATE  = 
ORIGINATOR     = 

OBJECT_NAME    = STARLINK-35769
OBJECT_ID      = 2025-280X
CENTER_NAME    = EARTH
REF_FRAME      = TEME
TIME_SYSTEM    = UTC
MEAN_ELEMENT_THEORY = SGP/SGP4

EPOCH          = 2025-12-26T20:11:11.800320
MEAN_MOTION    = 15.55269183
ECCENTRICITY   = .0005387
INCLINATION    = 70.0008
RA_OF_ASC_NODE = 159.7406
ARG_OF_PERICENTER = 260.5794
MEAN_ANOMALY   = 99.4786

EPHEMERIS_TYPE = 0
CLASSIFICATION_TYPE = U
NORAD_CAT_ID   = 66842
ELEMENT_SET_NO = 999
REV_AT_EPOCH   = 512
BSTAR          = .31557E-1
MEAN_MOTION_DOT = .240539E-1
MEAN_MOTION_DDOT = 0

CCSDS_OMM_VERS = 2.0
CREATION_DATE  = 
ORIGINATOR     = 

OBJECT_NAME    = STARLINK-35997
OBJECT_ID      = 2025-280Y
CENTER_NAME    = EARTH
REF_FRAME      = TEME
TIME_SYSTEM    = UTC
MEAN_ELEMENT_THEORY = SGP/SGP4

EPOCH          = 2025-12-26T20:10:13.729152
MEAN_MOTION    = 15.55229382
ECCENTRICITY   = .0005339
INCLINATION    = 70.0008
RA_OF_ASC_NODE = 159.7371
ARG_OF_PERICENTER = 306.8826
MEAN_ANOMALY   = 53.1873

EPHEMERIS_TYPE = 0
CLASSIFICATION_TYPE = U
NORAD_CAT_ID   = 66843
ELEMENT_SET_NO = 999
REV_AT_EPOCH   = 512
BSTAR          = .31804E-1
MEAN_MOTION_DOT = .242274E-1
MEAN_MOTION_DDOT = 0

CCSDS_OMM_VERS = 2.0
CREATION_DATE  = 
ORIGINATOR     = 

OBJECT_NAME    = STARLINK-36073
OBJECT_ID      = 2025-280Z
CENTER_NAME    = EARTH
REF_FRAME      = TEME
TIME_SYSTEM    = UTC
MEAN_ELEMENT_THEORY = SGP/SGP4

EPOCH          = 2025-12-26T08:00:01.000224
MEAN_MOTION    = 15.52420843
ECCENTRICITY   = .0003423
INCLINATION    = 70.0004
RA_OF_ASC_NODE = 161.1302
ARG_OF_PERICENTER = 270.9014
MEAN_ANOMALY   = 131.8672

EPHEMERIS_TYPE = 0
CLASSIFICATION_TYPE = U
NORAD_CAT_ID   = 66844
ELEMENT_SET_NO = 999
REV_AT_EPOCH   = 508
BSTAR          = .25125E-2
MEAN_MOTION_DOT = .156941E-2
MEAN_MOTION_DDOT = 0

