STARLINK-35858          
1 66833U 25280N   25360.33334491  .00187064  00000+0  29835-2 0  9993
2 66833  70.0002 161.1545 0003363 269.1139 114.4876 15.52414998  5088
STARLINK-35840          
1 66834U 25280P   25360.77981228  .00085565  00000+0  13766-2 0  9997
2 66834  70.0006 159.9293 0003342 274.8036  85.2769 15.52559570  5110
STARLINK-35890          
1 66835U 25280Q   25360.77947005  .00074053  00000+0  11939-2 0  9993
2 66835  70.0007 159.9280 0003392 271.2438  88.8360 15.52550895  5117
STARLINK-35838          
1 66836U 25280R   25360.71469760  .00099122  00000+0  15917-2 0  9999
2 66836  70.0008 160.1030 0003499 273.1058  86.9728 15.52556408  5105
STARLINK-35729          
1 66837U 25280S   25360.52103463  .00414120  00000+0  63216-2 0  9998
2 66837  70.0008 160.6309 0003286 288.0168  72.0660 15.52817833  5070
STARLINK-35886          
1 66838U 25280T   25360.71366828  .00056353  00000+0  91150-3 0  9995
2 66838  70.0009 160.0986 0003420 272.8203  87.2592 15.52541017  5102
STARLINK-35717          
1 66839U 25280U   25360.71401128  .00076659  00000+0  12353-2 0  9997
2 66839  70.0007 160.0996 0003396 276.4872  83.5928 15.52552146  5103
STARLINK-35837          
1 66840U 25280V   25360.84184369  .01281556  00000+0  17506-1 0  9997
2 66840  70.0008 159.7435 0007544 296.0651  63.9760 15.54573922  5126
STARLINK-35715          
1 66841U 25280W   25360.84146492  .02478738  00000+0  32436-1 0  9993
2 66841  70.0006 159.7422 0005641 310.7010  49.3688 15.55243777  5120
STARLINK-35769          
1 66842U 25280X   25360.84110880  .02405390  00000+0  31557-1 0  9993
2 66842  70.0008 159.7406 0005387 260.5794  99.4786 15.55269183  5127
STARLINK-35997          
1 66843U 25280Y   25360.84043668  .02422740  00000+0  31804-1 0  9996
2 66843  70.0008 159.7371 0005339 306.8826  53.1873 15.55229382  5127
STARLINK-36073          
1 66844U 25280Z   25360.33334491  .00156941  00000+0  25125-2 0  9993
2 66844  70.0004 161.1302 0003423 270.9014 131.8672 15.52420843  5085
